STARLINK-2229
1 27992C 21024R   21325.15347206 -.00022810  00000-0 -15283-2 0  3250
2 27992  53.0555 102.5289 0002012  68.3811 345.7917 15.06421166    14
